[{"OBJECT_NAME":"ORBCOMM FM20","OBJECT_ID":"1998-046D","EPOCH":"2026-03-05T13:34:28.860384","MEAN_MOTION":14.37886519,"ECCENTRICITY":0.00014759,"INCLINATION":44.9953,"RA_OF_ASC_NODE":22.8266,"ARG_OF_PERICENTER":289.295,"MEAN_ANOMALY":70.7738,"EPHEMERIS_TYPE":0,"CLASSIFICATION_TYPE":"U","NORAD_CAT_ID":25416,"ELEMENT_SET_NO":999,"REV_AT_EPOCH":44187,"BSTAR":0.00052519336,"MEAN_MOTION_DOT":1.458e-5,"MEAN_MOTION_DDOT":0},{"OBJECT_NAME":"ORBCOMM FM16","OBJECT_ID":"1998-046E","EPOCH":"2026-03-05T10:33:53.252352","MEAN_MOTION":14.39820999,"ECCENTRICITY":0.00030015,"INCLINATION":44.995,"RA_OF_ASC_NODE":11.3368,"ARG_OF_PERICENTER":196.5155,"MEAN_ANOMALY":163.5597,"EPHEMERIS_TYPE":0,"CLASSIFICATION_TYPE":"U","NORAD_CAT_ID":25417,"ELEMENT_SET_NO":999,"REV_AT_EPOCH":44189,"BSTAR":0.00062147577,"MEAN_MOTION_DOT":1.826e-5,"MEAN_MOTION_DDOT":0},{"OBJECT_NAME":"ORBCOMM FM15","OBJECT_ID":"1998-046F","EPOCH":"2026-03-01T22:38:33.271296","MEAN_MOTION":14.39427017,"ECCENTRICITY":0.0002671,"INCLINATION":44.998,"RA_OF_ASC_NODE":33.9056,"ARG_OF_PERICENTER":186.0202,"MEAN_ANOMALY":174.0615,"EPHEMERIS_TYPE":0,"CLASSIFICATION_TYPE":"U","NORAD_CAT_ID":25418,"ELEMENT_SET_NO":999,"REV_AT_EPOCH":44137,"BSTAR":0.0001764,"MEAN_MOTION_DOT":4.11e-6,"MEAN_MOTION_DDOT":0},{"OBJECT_NAME":"ORBCOMM FM14","OBJECT_ID":"1998-046G","EPOCH":"2026-03-05T08:37:15.805344","MEAN_MOTION":14.3988093,"ECCENTRICITY":0.00015671,"INCLINATION":44.9968,"RA_OF_ASC_NODE":15.0846,"ARG_OF_PERICENTER":208.8095,"MEAN_ANOMALY":151.2667,"EPHEMERIS_TYPE":0,"CLASSIFICATION_TYPE":"U","NORAD_CAT_ID":25419,"ELEMENT_SET_NO":999,"REV_AT_EPOCH":44184,"BSTAR":0.00061672368,"MEAN_MOTION_DOT":1.813e-5,"MEAN_MOTION_DDOT":0},{"OBJECT_NAME":"ORBCOMM FM13","OBJECT_ID":"1998-046H","EPOCH":"2026-03-05T13:51:09.638496","MEAN_MOTION":14.3843646,"ECCENTRICITY":0.00032222,"INCLINATION":44.9986,"RA_OF_ASC_NODE":24.7484,"ARG_OF_PERICENTER":166.2702,"MEAN_ANOMALY":193.8235,"EPHEMERIS_TYPE":0,"CLASSIFICATION_TYPE":"U","NORAD_CAT_ID":25420,"ELEMENT_SET_NO":999,"REV_AT_EPOCH":44086,"BSTAR":0.00057321045,"MEAN_MOTION_DOT":1.623e-5,"MEAN_MOTION_DDOT":0},{"OBJECT_NAME":"ORBCOMM FM21","OBJECT_ID":"1998-053A","EPOCH":"2026-03-05T10:38:38.972832","MEAN_MOTION":14.3800518,"ECCENTRICITY":0.00011008,"INCLINATION":45.0074,"RA_OF_ASC_NODE":111.668,"ARG_OF_PERICENTER":225.4412,"MEAN_ANOMALY":134.6346,"EPHEMERIS_TYPE":0,"CLASSIFICATION_TYPE":"U","NORAD_CAT_ID":25475,"ELEMENT_SET_NO":999,"REV_AT_EPOCH":43484,"BSTAR":0.00046755018,"MEAN_MOTION_DOT":1.285e-5,"MEAN_MOTION_DDOT":0},{"OBJECT_NAME":"ORBCOMM FM22","OBJECT_ID":"1998-053B","EPOCH":"2026-03-05T06:36:21.237120","MEAN_MOTION":14.39228246,"ECCENTRICITY":0.00010967,"INCLINATION":45.0065,"RA_OF_ASC_NODE":105.0324,"ARG_OF_PERICENTER":135.8222,"MEAN_ANOMALY":224.2715,"EPHEMERIS_TYPE":0,"CLASSIFICATION_TYPE":"U","NORAD_CAT_ID":25476,"ELEMENT_SET_NO":999,"REV_AT_EPOCH":43487,"BSTAR":0.0005254147,"MEAN_MOTION_DOT":1.502e-5,"MEAN_MOTION_DDOT":0},{"OBJECT_NAME":"ORBCOMM FM23","OBJECT_ID":"1998-053C","EPOCH":"2026-03-05T11:22:07.218624","MEAN_MOTION":14.38265632,"ECCENTRICITY":6.694e-5,"INCLINATION":45.0073,"RA_OF_ASC_NODE":113.2053,"ARG_OF_PERICENTER":163.3908,"MEAN_ANOMALY":196.6962,"EPHEMERIS_TYPE":0,"CLASSIFICATION_TYPE":"U","NORAD_CAT_ID":25477,"ELEMENT_SET_NO":999,"REV_AT_EPOCH":43500,"BSTAR":0.00049773601,"MEAN_MOTION_DOT":1.385e-5,"MEAN_MOTION_DDOT":0},{"OBJECT_NAME":"ORBCOMM FM24","OBJECT_ID":"1998-053D","EPOCH":"2026-03-05T13:55:05.355840","MEAN_MOTION":14.38912861,"ECCENTRICITY":8.957e-5,"INCLINATION":45.0071,"RA_OF_ASC_NODE":108.9613,"ARG_OF_PERICENTER":190.8187,"MEAN_ANOMALY":169.2643,"EPHEMERIS_TYPE":0,"CLASSIFICATION_TYPE":"U","NORAD_CAT_ID":25478,"ELEMENT_SET_NO":999,"REV_AT_EPOCH":43508,"BSTAR":0.00051681666,"MEAN_MOTION_DOT":1.465e-5,"MEAN_MOTION_DDOT":0},{"OBJECT_NAME":"ORBCOMM FM25","OBJECT_ID":"1998-053E","EPOCH":"2026-03-05T10:01:52.913856","MEAN_MOTION":14.38874373,"ECCENTRICITY":0.00028946,"INCLINATION":45.0062,"RA_OF_ASC_NODE":108.0431,"ARG_OF_PERICENTER":144.3469,"MEAN_ANOMALY":215.7574,"EPHEMERIS_TYPE":0,"CLASSIFICATION_TYPE":"U","NORAD_CAT_ID":25479,"ELEMENT_SET_NO":999,"REV_AT_EPOCH":43535,"BSTAR":0.00049456817,"MEAN_MOTION_DOT":1.394e-5,"MEAN_MOTION_DDOT":0},{"OBJECT_NAME":"ORBCOMM FM26","OBJECT_ID":"1998-053F","EPOCH":"2026-03-05T11:19:48.004896","MEAN_MOTION":14.37810836,"ECCENTRICITY":0.00051409,"INCLINATION":45.0062,"RA_OF_ASC_NODE":106.2433,"ARG_OF_PERICENTER":153.431,"MEAN_ANOMALY":206.6803,"EPHEMERIS_TYPE":0,"CLASSIFICATION_TYPE":"U","NORAD_CAT_ID":25480,"ELEMENT_SET_NO":999,"REV_AT_EPOCH":43524,"BSTAR":0.0004451716,"MEAN_MOTION_DOT":1.212e-5,"MEAN_MOTION_DDOT":0},{"OBJECT_NAME":"ORBCOMM FM27","OBJECT_ID":"1998-053G","EPOCH":"2026-03-05T11:15:05.086368","MEAN_MOTION":14.38918898,"ECCENTRICITY":0.00017907,"INCLINATION":45.0048,"RA_OF_ASC_NODE":107.9,"ARG_OF_PERICENTER":246.8038,"MEAN_ANOMALY":113.2622,"EPHEMERIS_TYPE":0,"CLASSIFICATION_TYPE":"U","NORAD_CAT_ID":25481,"ELEMENT_SET_NO":999,"REV_AT_EPOCH":43529,"BSTAR":0.00054255603,"MEAN_MOTION_DOT":1.545e-5,"MEAN_MOTION_DDOT":0},{"OBJECT_NAME":"ORBCOMM FM28","OBJECT_ID":"1998-053H","EPOCH":"2026-03-05T08:10:58.820448","MEAN_MOTION":14.39014848,"ECCENTRICITY":0.0003674,"INCLINATION":45.006,"RA_OF_ASC_NODE":45.7125,"ARG_OF_PERICENTER":200.0148,"MEAN_ANOMALY":160.0557,"EPHEMERIS_TYPE":0,"CLASSIFICATION_TYPE":"U","NORAD_CAT_ID":25482,"ELEMENT_SET_NO":999,"REV_AT_EPOCH":43596,"BSTAR":0.00048990088,"MEAN_MOTION_DOT":1.384e-5,"MEAN_MOTION_DDOT":0},{"OBJECT_NAME":"ORBCOMM FM30","OBJECT_ID":"1999-065A","EPOCH":"2026-03-05T15:22:44.947200","MEAN_MOTION":14.37971678,"ECCENTRICITY":0.00058223,"INCLINATION":45.0316,"RA_OF_ASC_NODE":291.5411,"ARG_OF_PERICENTER":242.7846,"MEAN_ANOMALY":117.241,"EPHEMERIS_TYPE":0,"CLASSIFICATION_TYPE":"U","NORAD_CAT_ID":25980,"ELEMENT_SET_NO":999,"REV_AT_EPOCH":37207,"BSTAR":0.00040179043,"MEAN_MOTION_DOT":1.084e-5,"MEAN_MOTION_DDOT":0},{"OBJECT_NAME":"ORBCOMM FM31","OBJECT_ID":"1999-065B","EPOCH":"2026-03-05T13:22:26.798304","MEAN_MOTION":14.37894531,"ECCENTRICITY":0.00035084,"INCLINATION":45.0225,"RA_OF_ASC_NODE":285.3788,"ARG_OF_PERICENTER":272.4599,"MEAN_ANOMALY":87.5848,"EPHEMERIS_TYPE":0,"CLASSIFICATION_TYPE":"U","NORAD_CAT_ID":25981,"ELEMENT_SET_NO":999,"REV_AT_EPOCH":37161,"BSTAR":0.00040288907,"MEAN_MOTION_DOT":1.085e-5,"MEAN_MOTION_DDOT":0},{"OBJECT_NAME":"ORBCOMM FM32","OBJECT_ID":"1999-065C","EPOCH":"2026-03-05T15:16:52.399776","MEAN_MOTION":14.36957104,"ECCENTRICITY":0.00057835,"INCLINATION":45.0161,"RA_OF_ASC_NODE":303.3223,"ARG_OF_PERICENTER":267.6936,"MEAN_ANOMALY":92.325,"EPHEMERIS_TYPE":0,"CLASSIFICATION_TYPE":"U","NORAD_CAT_ID":25982,"ELEMENT_SET_NO":999,"REV_AT_EPOCH":37219,"BSTAR":0.00043649376,"MEAN_MOTION_DOT":1.163e-5,"MEAN_MOTION_DDOT":0}]
