ORBCOMM FM20            
1 25416U 98046D   26064.56561181  .00001458  00000+0  52519-3 0  9998
2 25416  44.9953  22.8266 0001475 289.2950  70.7738 14.37886519441870
ORBCOMM FM16            
1 25417U 98046E   26064.44019968  .00001826  00000+0  62148-3 0  9995
2 25417  44.9950  11.3368 0003001 196.5155 163.5597 14.39820999441896
ORBCOMM FM15            
1 25418U 98046F   26060.94344064  .00000411  00000+0  17640-3 0  9991
2 25418  44.9980  33.9056 0002671 186.0202 174.0615 14.39427017441378
ORBCOMM FM14            
1 25419U 98046G   26064.35921071  .00001813  00000+0  61672-3 0  9991
2 25419  44.9968  15.0846 0001567 208.8095 151.2667 14.39880930441842
ORBCOMM FM13            
1 25420U 98046H   26064.57719489  .00001623  00000+0  57321-3 0  9990
2 25420  44.9986  24.7484 0003222 166.2702 193.8235 14.38436460440869
ORBCOMM FM21            
1 25475U 98053A   26064.44350663  .00001285  00000+0  46755-3 0  9992
2 25475  45.0074 111.6680 0001100 225.4412 134.6346 14.38005180434840
ORBCOMM FM22            
1 25476U 98053B   26064.27524580  .00001502  00000+0  52541-3 0  9997
2 25476  45.0065 105.0324 0001096 135.8222 224.2715 14.39228246434870
ORBCOMM FM23            
1 25477U 98053C   26064.47369466  .00001385  00000+0  49774-3 0  9993
2 25477  45.0073 113.2053 0000669 163.3908 196.6962 14.38265632435003
ORBCOMM FM24            
1 25478U 98053D   26064.57992310  .00001465  00000+0  51682-3 0  9995
2 25478  45.0071 108.9613 0000895 190.8187 169.2643 14.38912861435083
ORBCOMM FM25            
1 25479U 98053E   26064.41797354  .00001394  00000+0  49457-3 0  9998
2 25479  45.0062 108.0431 0002894 144.3469 215.7574 14.38874373435356
ORBCOMM FM26            
1 25480U 98053F   26064.47208339  .00001212  00000+0  44517-3 0  9997
2 25480  45.0062 106.2433 0005140 153.4310 206.6803 14.37810836435248
ORBCOMM FM27            
1 25481U 98053G   26064.46880887  .00001545  00000+0  54256-3 0  9991
2 25481  45.0048 107.9000 0001790 246.8038 113.2622 14.38918898435297
ORBCOMM FM28            
1 25482U 98053H   26064.34095857  .00001384  00000+0  48990-3 0  9993
2 25482  45.0060  45.7125 0003674 200.0148 160.0557 14.39014848435960
ORBCOMM FM30            
1 25980U 99065A   26064.64079800  .00001084  00000+0  40179-3 0  9991
2 25980  45.0316 291.5411 0005822 242.7846 117.2410 14.37971678372076
ORBCOMM FM31            
1 25981U 99065B   26064.55725461  .00001085  00000+0  40289-3 0  9996
2 25981  45.0225 285.3788 0003508 272.4599  87.5848 14.37894531371613
ORBCOMM FM32            
1 25982U 99065C   26064.63671759  .00001163  00000+0  43649-3 0  9996
2 25982  45.0161 303.3223 0005783 267.6936  92.3250 14.36957104372196
